[{"OBJECT_NAME":"CARBONITE 1 (CBNT-1)","OBJECT_ID":"2015-032D","EPOCH":"2026-03-09T23:00:42.777216","MEAN_MOTION":14.83223736,"ECCENTRICITY":0.0013267,"INCLINATION":97.6467,"RA_OF_ASC_NODE":251.2159,"ARG_OF_PERICENTER":259.6402,"MEAN_ANOMALY":100.3317,"EPHEMERIS_TYPE":0,"CLASSIFICATION_TYPE":"U","NORAD_CAT_ID":40718,"ELEMENT_SET_NO":999,"REV_AT_EPOCH":57463,"BSTAR":0.00052444673,"MEAN_MOTION_DOT":4.241e-5,"MEAN_MOTION_DDOT":0},{"OBJECT_NAME":"GEESAT-5 11","OBJECT_ID":"2025-201L","EPOCH":"2026-03-09T16:20:00.938688","MEAN_MOTION":14.8375843,"ECCENTRICITY":0.00089326,"INCLINATION":49.9859,"RA_OF_ASC_NODE":140.356,"ARG_OF_PERICENTER":317.2651,"MEAN_ANOMALY":42.7591,"EPHEMERIS_TYPE":0,"CLASSIFICATION_TYPE":"U","NORAD_CAT_ID":65560,"ELEMENT_SET_NO":999,"REV_AT_EPOCH":2704,"BSTAR":0.00034705085,"MEAN_MOTION_DOT":2.678e-5,"MEAN_MOTION_DDOT":0}]
